STARLINK-4417           
1 53200U 22084M   26068.74559867 -.00000160  00000+0 -68746-5 0  9993
2 53200  97.6031 131.2277 0000906 118.3866 241.7452 15.05649534200042
CHUANGXIN 16A (CX-16A)  
1 53586U 22102A   26068.83297444  .00003128  00000+0  20134-3 0  9993
2 53586  28.9941 256.1289 0005063  43.7318 316.3682 15.05552649194538
